[{"OBJECT_NAME":"TIANQI-40","OBJECT_ID":"2026-010D","EPOCH":"2026-03-09T13:59:28.118112","MEAN_MOTION":13.99111131,"ECCENTRICITY":0.0011419,"INCLINATION":44.9822,"RA_OF_ASC_NODE":165.0841,"ARG_OF_PERICENTER":228.5546,"MEAN_ANOMALY":131.4306,"EPHEMERIS_TYPE":0,"CLASSIFICATION_TYPE":"U","NORAD_CAT_ID":67479,"ELEMENT_SET_NO":999,"REV_AT_EPOCH":744,"BSTAR":0.00022524,"MEAN_MOTION_DOT":2.0e-6,"MEAN_MOTION_DDOT":0},{"OBJECT_NAME":"SL-16 DEB","OBJECT_ID":"1998-043K","EPOCH":"2026-03-09T17:47:35.246688","MEAN_MOTION":13.78542895,"ECCENTRICITY":0.02104381,"INCLINATION":98.5955,"RA_OF_ASC_NODE":10.4532,"ARG_OF_PERICENTER":271.586,"MEAN_ANOMALY":152.1392,"EPHEMERIS_TYPE":0,"CLASSIFICATION_TYPE":"U","NORAD_CAT_ID":25403,"ELEMENT_SET_NO":999,"REV_AT_EPOCH":39067,"BSTAR":0.00026220819,"MEAN_MOTION_DOT":2.73e-6,"MEAN_MOTION_DDOT":0}]
